[{"OBJECT_NAME":"QIANFAN-23","OBJECT_ID":"2024-185E","EPOCH":"2026-03-09T22:52:44.891904","MEAN_MOTION":14.16398048,"ECCENTRICITY":0.00092256,"INCLINATION":88.9755,"RA_OF_ASC_NODE":67.6947,"ARG_OF_PERICENTER":47.6437,"MEAN_ANOMALY":312.5531,"EPHEMERIS_TYPE":0,"CLASSIFICATION_TYPE":"U","NORAD_CAT_ID":61556,"ELEMENT_SET_NO":999,"REV_AT_EPOCH":8209,"BSTAR":0.00033141265,"MEAN_MOTION_DOT":6.72e-6,"MEAN_MOTION_DDOT":0},{"OBJECT_NAME":"METEOR 1-13","OBJECT_ID":"1972-085A","EPOCH":"2026-03-09T22:44:14.153856","MEAN_MOTION":14.09466436,"ECCENTRICITY":0.00299298,"INCLINATION":81.2693,"RA_OF_ASC_NODE":249.0436,"ARG_OF_PERICENTER":60.6999,"MEAN_ANOMALY":299.7156,"EPHEMERIS_TYPE":0,"CLASSIFICATION_TYPE":"U","NORAD_CAT_ID":6256,"ELEMENT_SET_NO":999,"REV_AT_EPOCH":74089,"BSTAR":0.00011244792,"MEAN_MOTION_DOT":2.1e-6,"MEAN_MOTION_DDOT":0}]
